sat07337
1 07337U 74044A   20046.86701902  .00000523  00000-0  24095-4 0  9998
2 07337  82.9446  55.0442 0544096 134.5903 230.1059 14.38941889306620
